STARLINK-30908          
1 58424U 23180Y   26068.00995477  .00001946  00000+0  82217-4 0  9993
2 58424  43.0016  56.1487 0001301 269.1344  90.9358 15.26739149127522
ARCSTONE                
1 64540U 25135N   26068.88991918  .00026427  00000+0  94900-3 0  9995
2 64540  97.4495 185.9194 0004120 166.7863 193.3485 15.28638458 39847
